FLOCK 3P-9              
1 41973U 17008AB  17278.89955143  .00006520  00000-0  27824-3 0  9998
2 41973  97.4851 339.9003 0009220 154.8795 205.2892 15.23211679 35305
FLOCK 3P-10             
1 41974U 17008AC  17278.88924384  .00006079  00000-0  25931-3 0  9997
2 41974  97.4853 339.9169 0009002 156.2582 203.9071 15.23255865 35195
FLOCK 3P-11             
1 41975U 17008AD  17278.90150741  .00006350  00000-0  27084-3 0  9992
2 41975  97.4851 339.8976 0009281 155.4736 204.6944 15.23238747 35197
FLOCK 3P-60             
1 41976U 17008AE  17278.87772708  .00004567  00000-0  19577-3 0  9998
2 41976  97.4854 339.9338 0008861 157.2153 202.9478 15.23229077 34558
FLOCK 3P-58             
1 41977U 17008AF  17279.42191667  .00004379  00000-0  18814-3 0  9994
2 41977  97.4849 340.4261 0009010 154.5577 205.6105 15.23176835 35463
FLOCK 3P-57             
1 41978U 17008AG  17278.89018179  .00006021  00000-0  25702-3 0  9991
2 41978  97.4851 339.9114 0009062 155.1748 204.9927 15.23235927 35227
FLOCK 3P-75             
1 41979U 17008AH  17279.48005219  .00006650  00000-0  28371-3 0  9992
2 41979  97.4870 340.5745 0009237 156.3614 203.8049 15.23214444 35466
FLOCK 3P-70             
1 41980U 17008AJ  17278.88790234  .00006109  00000-0  26064-3 0  9991
2 41980  97.4874 339.9881 0009144 157.6127 202.5511 15.23248011 35226
FLOCK 3P-73             
1 41981U 17008AK  17278.89565987  .00006173  00000-0  26364-3 0  9992
2 41981  97.4874 339.9788 0009399 158.8497 201.3130 15.23204812 35357
FLOCK 3P-88             
1 41982U 17008AL  17279.41011634  .00002390  00000-0  10396-3 0  9992
2 41982  97.4869 340.5085 0009237 156.4499 203.7162 15.23220330 34406
FLOCK 3P-85             
1 41983U 17008AM  17278.87195523  .00003063  00000-0  13228-3 0  9997
2 41983  97.4874 340.0069 0009087 161.4188 198.7383 15.23233613 35221
FLOCK 3P-79             
1 41984U 17008AN  17278.87296133  .00004382  00000-0  18803-3 0  9996
2 41984  97.4874 340.0052 0008751 160.6056 199.5516 15.23223042 35228
FLOCK 3P-86             
1 41985U 17008AP  17278.87359539  .00002231  00000-0  97187-4 0  9991
2 41985  97.4872 339.9998 0008724 159.9403 200.2178 15.23232087 35212
FLOCK 3P-36             
1 41986U 17008AQ  17279.46708771  .00002459  00000-0  10676-3 0  9993
2 41986  97.4854 340.5296 0008555 155.7640 204.4001 15.23252644 34795
FLOCK 3P-30             
1 41987U 17008AR  17278.93273966  .00002306  00000-0  10039-3 0  9992
2 41987  97.4856 340.0188 0008417 158.3901 201.7692 15.23229301 35183
FLOCK 3P-34             
1 41988U 17008AS  17278.87927062  .00002365  00000-0  10297-3 0  9990
2 41988  97.4851 339.9251 0008675 155.3416 204.8237 15.23199197 34706
FLOCK 3P-35             
1 41989U 17008AT  17279.40705861  .00002525  00000-0  10964-3 0  9991
2 41989  97.4849 340.4452 0008851 153.8871 206.2814 15.23227726 34783
FLOCK 3P-33             
1 41990U 17008AU  17278.87668703  .00002123  00000-0  92714-4 0  9994
2 41990  97.4852 339.9322 0008432 156.0773 204.0857 15.23204975 34705
LEMUR-2-SATCHMO         
1 41991U 17008AV  17279.44934554  .00003026  00000-0  13327-3 0  9994
2 41991  97.4844 340.3878 0008555 157.0078 203.1543 15.22581444 34782
LEMUR-2-MIA-GRACE       
1 41992U 17008AW  17278.89633919  .00003302  00000-0  14376-3 0  9996
2 41992  97.4850 339.9074 0008470 159.2750 200.8831 15.22905972 34701
LEMUR-2-SMITA-SHARAD    
1 41993U 17008AX  17279.43475602  .00002702  00000-0  11882-3 0  9993
2 41993  97.4845 340.4089 0008475 156.9314 203.2304 15.22730274 34785
LEMUR-2-SPIRE-MINIONS   
1 41994U 17008AY  17279.42835746  .00003595  00000-0  15642-3 0  9991
2 41994  97.4845 340.4174 0008577 156.9194 203.2430 15.22869132 34786
LEMUR-2-RDEATON         
1 41995U 17008AZ  17278.90460604  .00002926  00000-0  12822-3 0  9995
2 41995  97.4848 339.8937 0009166 172.3554 187.7824 15.22773832 35387
LEMUR-2-NOGUECORREIG    
1 41996U 17008BA  17279.48180627  .00001958  00000-0  86454-4 0  9991
2 41996  97.4849 340.5051 0009187 170.9884 189.1519 15.22929095 34692
LEMUR-2-JOBANPUTRA      
1 41997U 17008BB  17279.40103074  .00004325  00000-0  18651-3 0  9999
2 41997  97.4851 340.4608 0009133 171.0174 189.1228 15.23057875 34773
LEMUR-2-TACHIKOMA       
1 41998U 17008BC  17278.90689199  .00002588  00000-0  11409-3 0  9994
2 41998  97.4846 339.8894 0009047 172.9404 187.1962 15.22683717 34623
BGUSAT                  
1 41999U 17008BD  17278.92951854  .00004322  00000-0  18533-3 0  9990
2 41999  97.4858 340.0293 0009065 173.5526 186.5829 15.23246453 34703
DIDO-2                  
1 42000U 17008BE  17279.44104930  .00002233  00000-0  99232-4 0  9992
2 42000  97.4842 340.3991 0009046 171.6664 188.4724 15.22551233 34786
FLOCK 3P-49             
1 42001U 17008BF  17278.92916579  .00002588  00000-0  11230-3 0  9999
2 42001  97.4854 340.0178 0008652 173.5032 186.6318 15.23228920 35231
FLOCK 3P-67             
1 42002U 17008BG  17279.13155878  .00002543  00000-0  11029-3 0  9998
2 42002  97.4851 340.2027 0008674 172.2901 187.8470 15.23259393 35420
FLOCK 3P-68             
1 42003U 17008BH  17278.93650192  .00002432  00000-0  10578-3 0  9990
2 42003  97.4850 339.9998 0008765 171.6581 188.4803 15.23196290 35030
FLOCK 3P-41             
1 42004U 17008BJ  17278.92398798  .00002360  00000-0  10262-3 0  9991
2 42004  97.4849 340.0103 0008400 173.8766 186.2575 15.23238836 35232
FLOCK 3P-45             
1 42005U 17008BK  17278.92997881  .00004876  00000-0  20872-3 0  9992
2 42005  97.4853 340.0113 0008490 173.7944 186.3399 15.23248345 35393
FLOCK 3P-48             
1 42006U 17008BL  17278.86175729  .00004798  00000-0  20541-3 0  9991
2 42006  97.4855 339.9535 0008333 174.3955 185.7376 15.23252674 35169
FLOCK 3P-43             
1 42007U 17008BM  17278.92552703  .00006370  00000-0  27181-3 0  9995
2 42007  97.4852 340.0130 0008233 174.2136 185.9197 15.23235436 35395
FLOCK 3P-42             
1 42008U 17008BN  17278.85909552  .00004361  00000-0  18711-3 0  9993
2 42008  97.4850 339.9440 0008350 173.9714 186.1625 15.23230346 35308
FLOCK 3P-61             
1 42009U 17008BP  17278.92317406  .00006429  00000-0  27440-3 0  9999
2 42009  97.4852 340.0157 0008174 175.7133 184.4175 15.23223878 35367
FLOCK 3P-40             
1 42010U 17008BQ  17279.44262724  .00006563  00000-0  27996-3 0  9996
2 42010  97.4843 340.5318 0008115 174.3975 185.7353 15.23231939 34703
FLOCK 3P-16             
1 42011U 17008BR  17278.90362854  .00006341  00000-0  27072-3 0  9991
2 42011  97.4846 340.0288 0007722 176.3688 183.7606 15.23222638 34563
FLOCK 3P-14             
1 42012U 17008BS  17278.90905849  .00004167  00000-0  17884-3 0  9993
2 42012  97.4851 340.0308 0008030 178.7160 181.4098 15.23245883 35183
FLOCK 3P-53             
1 42013U 17008BT  17278.91326518  .00002400  00000-0  10421-3 0  9993
2 42013  97.4841 340.0033 0007767 176.6687 183.4603 15.23282622 35181
FLOCK 3P-54             
1 42014U 17008BU  17278.91072203  .00006588  00000-0  28099-3 0  9994
2 42014  97.4848 340.0181 0007685 177.3173 182.8107 15.23236378 35392
PEASSS                  
1 42015U 17008BV  17278.88730234  .00002415  00000-0  10502-3 0  9991
2 42015  97.4836 340.0331 0006660 178.4876 181.6382 15.23227080 35191
AL-FARABI 1             
1 42016U 17008BW  17278.86904835  .00003043  00000-0  13066-3 0  9996
2 42016  97.4841 340.0658 0006583 179.0531 181.0720 15.23452356 35319
NAYIF-1 (EO-88)         
1 42017U 17008BX  17278.86675678  .00003074  00000-0  13191-3 0  9990
2 42017  97.4839 340.0670 0006544 179.1494 180.9755 15.23469899 35335
FLOCK 3P-23             
1 42018U 17008BY  17279.43452006  .00003495  00000-0  15060-3 0  9997
2 42018  97.4841 340.3850 0009656 152.3873 207.7878 15.23214249 34232
FLOCK 3P-76             
1 42019U 17008BZ  17278.87995773  .00004040  00000-0  17353-3 0  9992
2 42019  97.4876 340.0035 0009156 159.5658 200.5946 15.23227252 35212
FLOCK 3P-69             
1 42020U 17008CA  17278.87813357  .00004507  00000-0  19332-3 0  9998
2 42020  97.4876 340.0053 0009046 158.3326 201.8295 15.23216439 34104
FLOCK 3P-84             
1 42021U 17008CB  17278.82072911  .00003935  00000-0  16910-3 0  9990
2 42021  97.4871 339.9162 0009424 158.8385 201.3243 15.23227865 35214
FLOCK 3P-59             
1 42022U 17008CC  17279.47990164  .00004796  00000-0  20569-3 0  9993
2 42022  97.4850 340.5042 0008924 156.7989 203.3652 15.23188697 34335
FLOCK 3P-32             
1 42023U 17008CD  17278.89091716  .00006038  00000-0  25790-3 0  9996
2 42023  97.4852 339.9142 0008935 154.6913 205.4763 15.23217201 35383
FLOCK 3P-71             
1 42024U 17008CE  17278.90318052  .00004589  00000-0  19783-3 0  9998
2 42024  97.4879 339.9755 0009297 159.0301 201.1319 15.23028480 34259
FLOCK 3P-77             
1 42025U 17008CF  17278.88103991  .00002371  00000-0  10311-3 0  9995
2 42025  97.4873 339.9938 0009064 159.9444 200.2151 15.23237961 35224
FLOCK 3P-80             
1 42026U 17008CG  17279.12829441  .00006577  00000-0  28048-3 0  9997
2 42026  97.4871 340.2729 0008704 158.9290 201.2306 15.23235486 33405
FLOCK 3P-66             
1 42027U 17008CH  17278.93583208  .00004793  00000-0  20534-3 0  9994
2 42027  97.4854 340.0093 0008796 170.8739 189.2660 15.23223556 35349
FLOCK 3P-65             
1 42028U 17008CJ  17278.93366250  .00004000  00000-0  17198-3 0  9994
2 42028  97.4854 340.0115 0008638 171.0676 189.0716 15.23207551 35249
FLOCK 3P-50             
1 42029U 17008CK  17278.93066719  .00006400  00000-0  27313-3 0  9998
2 42029  97.4857 340.0215 0008417 173.1869 186.9483 15.23224980 34562
FLOCK 3P-52             
1 42030U 17008CL  17278.93220561  .00002407  00000-0  10463-3 0  9998
2 42030  97.4852 340.0095 0008532 172.2978 187.8391 15.23232245 35331
FLOCK 3P-46             
1 42031U 17008CM  17278.86096625  .00004595  00000-0  19695-3 0  9999
2 42031  97.4851 339.9456 0008424 173.4666 186.6682 15.23234415 35382
